{
    "links": {
        "self": "http://www.neowsapp.com/rest/v1/neo/3472365?api_key=iIulBulltgU6a56xZRHN4H3l9WmuAYTsLGpBGhQ2"
    },
    "id": "3472365",
    "neo_reference_id": "3472365",
    "name": "(2009 UB19)",
    "designation": "2009 UB19",
    "nasa_jpl_url": "http://ssd.jpl.nasa.gov/sbdb.cgi?sstr=3472365",
    "absolute_magnitude_h": 23.3,
    "estimated_diameter": {
        "kilometers": {
            "estimated_diameter_min": 0.058150704,
            "estimated_diameter_max": 0.130028927
        },
        "meters": {
            "estimated_diameter_min": 58.1507039646,
            "estimated_diameter_max": 130.0289270043
        },
        "miles": {
            "estimated_diameter_min": 0.0361331611,
            "estimated_diameter_max": 0.0807962044
        },
        "feet": {
            "estimated_diameter_min": 190.7831555951,
            "estimated_diameter_max": 426.6041048727
        }
    },
    "is_potentially_hazardous_asteroid": false,
    "close_approach_data": [
        {
            "close_approach_date": "2009-10-12",
            "close_approach_date_full": "2009-Oct-12 14:55",
            "epoch_date_close_approach": 1255359300000,
            "relative_velocity": {
                "kilometers_per_second": "7.82034682",
                "kilometers_per_hour": "28153.2485520247",
                "miles_per_hour": "17493.3338016733"
            },
            "miss_distance": {
                "astronomical": "0.1148122297",
                "lunar": "44.6619573533",
                "kilometers": "17175665.013070739",
                "miles": "10672463.3504206382"
            },
            "orbiting_body": "Earth"
        },
        {
            "close_approach_date": "2197-08-05",
            "close_approach_date_full": "2197-Aug-05 15:38",
            "epoch_date_close_approach": 7182229080000,
            "relative_velocity": {
                "kilometers_per_second": "17.0254053956",
                "kilometers_per_hour": "61291.459424111",
                "miles_per_hour": "38084.1293293872"
            },
            "miss_distance": {
                "astronomical": "0.4114443546",
                "lunar": "160.0518539394",
                "kilometers": "61551199.071684702",
                "miles": "38246141.6059928076"
            },
            "orbiting_body": "Earth"
        }
    ],
    "orbital_data": {
        "orbit_id": "9",
        "orbit_determination_date": "2017-04-06 08:59:26",
        "first_observation_date": "2009-10-24",
        "last_observation_date": "2009-11-16",
        "data_arc_in_days": 23,
        "observations_used": 30,
        "orbit_uncertainty": "8",
        "minimum_orbit_intersection": ".0567597",
        "jupiter_tisserand_invariant": "3.780",
        "epoch_osculation": "2455133.5",
        "eccentricity": ".4531578033658141",
        "semi_major_axis": "1.931060667381658",
        "inclination": "2.525428577151423",
        "ascending_node_longitude": "208.6299067952512",
        "orbital_period": "980.1494576737593",
        "perihelion_distance": "1.055985457184863",
        "perihelion_argument": "150.3776755016154",
        "aphelion_distance": "2.806135877578454",
        "perihelion_time": "2455103.103296853736",
        "mean_anomaly": "11.16443318616551",
        "mean_motion": ".3672909240335725",
        "equinox": "J2000",
        "orbit_class": {
            "orbit_class_type": "AMO",
            "orbit_class_description": "Near-Earth asteroid orbits similar to that of 1221 Amor",
            "orbit_class_range": "1.017 AU < q (perihelion) < 1.3 AU"
        }
    },
    "is_sentry_object": false
}